[{"OBJECT_NAME":"JIAOTONG 5 (HEAD-2H)","OBJECT_ID":"2022-167K","EPOCH":"2026-03-09T23:22:06.822048","MEAN_MOTION":15.70872056,"ECCENTRICITY":0.00036843,"INCLINATION":97.6162,"RA_OF_ASC_NODE":251.2696,"ARG_OF_PERICENTER":321.7019,"MEAN_ANOMALY":38.3981,"EPHEMERIS_TYPE":0,"CLASSIFICATION_TYPE":"U","NORAD_CAT_ID":54691,"ELEMENT_SET_NO":999,"REV_AT_EPOCH":18142,"BSTAR":0.0011277683,"MEAN_MOTION_DOT":0.00142368,"MEAN_MOTION_DDOT":0},{"OBJECT_NAME":"STARLINK-11205 [DTC]","OBJECT_ID":"2024-133N","EPOCH":"2026-03-09T12:28:02.631360","MEAN_MOTION":15.69693628,"ECCENTRICITY":0.0001309,"INCLINATION":53.1579,"RA_OF_ASC_NODE":147.3292,"ARG_OF_PERICENTER":57.653,"MEAN_ANOMALY":302.4615,"EPHEMERIS_TYPE":0,"CLASSIFICATION_TYPE":"U","NORAD_CAT_ID":60313,"ELEMENT_SET_NO":999,"REV_AT_EPOCH":9370,"BSTAR":-2.8064433e-5,"MEAN_MOTION_DOT":-3.985e-5,"MEAN_MOTION_DDOT":0}]
